OBJECT_NAME,OBJECT_ID,EPOCH,MEAN_MOTION,ECCENTRICITY,INCLINATION,RA_OF_ASC_NODE,ARG_OF_PERICENTER,MEAN_ANOMALY,EPHEMERIS_TYPE,CLASSIFICATION_TYPE,NORAD_CAT_ID,ELEMENT_SET_NO,REV_AT_EPOCH,BSTAR,MEAN_MOTION_DOT,MEAN_MOTION_DDOT
CHUANGXIN 1-02 (CX-1-02),2008-056B,2026-07-07T20:47:43.530720,14.30156662,.0015524,98.6130,214.9265,80.3426,279.9510,0,U,33434,999,92157,-.69156E-4,-.223E-5,0
STARS (KUKAI),2009-002G,2026-07-07T18:07:55.822080,14.95900344,.0010239,98.1556,136.9059,99.6097,260.6280,0,U,33498,999,94155,.20754E-3,.2261E-4,0
KKS-1 (KISEKI),2009-002H,2026-07-07T18:23:00.457728,14.83177123,.0006844,98.1179,111.5343,215.3247,144.7513,0,U,33499,999,93924,.14285E-3,.111E-4,0
UK-DMC 2,2009-041C,2026-07-07T21:38:03.660864,14.76089192,.0001365,97.8864,323.3648,99.7181,260.4183,0,U,35683,999,90962,.13029E-3,.849E-5,0
OCEANSAT-2,2009-051A,2026-07-07T20:36:58.368096,13.99657466,.0016846,98.2318,173.6468,174.8056,185.3288,0,U,35931,999,88222,-.99553E-4,-.183E-5,0
SWISSCUBE,2009-051B,2026-07-07T16:38:49.301952,14.62521314,.0007441,98.4017,96.9380,139.4593,220.7163,0,U,35932,999,89215,.17197E-3,.823E-5,0
BEESAT-1,2009-051C,2026-07-07T17:07:49.721088,14.61753962,.0005671,98.3945,96.5507,149.9217,210.2310,0,U,35933,999,89218,.14545E-3,.676E-5,0
ITUPSAT1,2009-051E,2026-07-07T17:20:37.126752,14.60471459,.0007547,98.4027,95.7297,164.8857,195.2569,0,U,35935,999,89173,.13755E-3,.618E-5,0
DMSP 5D-3 F18 (USA 210),2009-057A,2026-07-07T18:57:42.078240,14.14908093,.0010773,98.9049,169.5155,186.5355,173.5679,0,U,35951,999,86250,.13489E-3,.216E-5,0
PROBA-2,2009-059B,2026-07-07T11:03:02.541312,14.54871279,.00124794,98.2457,11.5327,213.4919,146.5491,0,U,36037,999,88447,.48067619E-4,.161E-5,0
YAOGAN-7,2009-069A,2026-07-07T03:03:51.409440,14.78030223,.00240564,98.0047,73.8694,338.2842,21.7346,0,U,36110,999,89257,.61972214E-4,.396E-5,0
XIWANG-1 (HOPE-1),2009-072B,2026-07-07T20:09:05.119776,13.16441510,.0007318,100.4035,142.3426,181.4555,178.6538,0,U,36122,999,79572,.13089E-2,.455E-5,0
COSMOS 2463,2010-017A,2026-07-07T16:48:45.205344,13.71666877,.0037548,82.9587,234.6344,74.0023,50.6450,0,U,36519,999,81074,.19069E-4,.33E-6,0
CARTOSAT-2B,2010-035A,2026-07-07T20:15:09.948960,14.78612386,.0012372,97.9939,239.2607,120.4119,239.8316,0,U,36795,999,86290,.10504E-3,.717E-5,0
TISAT 1,2010-035E,2026-07-07T07:09:50.879520,15.32521446,.00040788,98.0714,136.6429,127.2476,232.9136,0,U,36799,999,87078,.53880992E-3,.16855E-3,0
YAOGAN-10,2010-038A,2026-07-07T21:47:56.281056,14.85414257,.0001663,97.8972,212.1470,85.9298,34.4526,0,U,36834,999,86028,.16756E-3,.1389E-4,0
SHIJIAN-6 04B (SJ-6 04B),2010-051B,2026-07-07T20:16:43.375008,14.99379142,.0007033,97.8742,194.4743,237.0795,122.9751,0,U,37180,999,85877,.79304E-4,.909E-5,0
FENGYUN 3B,2010-059A,2026-07-07T21:26:49.054848,14.14845006,.0022949,98.9607,234.9948,126.2732,349.5821,0,U,37214,999,81035,-.15514E-3,-.345E-5,0
COSMO-SKYMED 4,2010-060A,2026-07-07T19:57:56.924640,14.82163444,.0001493,97.8898,12.1329,85.8589,274.2795,0,U,37216,999,84762,.42342E-4,.285E-5,0
O/OREOS (USA 219),2010-062C,2026-07-07T16:31:07.341024,14.93832571,.0013508,71.9709,33.8970,19.9094,340.2601,0,U,37224,999,11970,.14746E-3,.1505E-4,0
RESOURCESAT-2,2011-015A,2026-07-07T18:45:27.407808,14.21604878,.0011149,98.7634,256.0802,192.1895,167.9014,0,U,37387,999,78910,.39547E-4,.42E-6,0
YOUTHSAT,2011-015B,2026-07-06T22:47:16.928736,14.25638257,.00132339,98.3695,161.1136,285.7332,141.3050,0,U,37388,999,79045,.82769769E-4,.155E-5,0
APRIZESAT 6,2011-044F,2026-07-07T17:47:16.668096,14.76949096,.0043656,98.2346,99.6592,21.9354,32.6608,0,U,37793,999,80018,.10115E-3,.666E-5,0
JUGNU,2011-058B,2026-07-07T01:17:32.697888,14.13781645,.00183556,19.9587,187.7288,296.0601,101.0732,0,U,37839,999,76184,.6294923E-4,.388E-5,0
SRMSAT,2011-058D,2026-07-07T12:20:05.633376,14.11579854,.00118785,19.9725,296.4406,67.5382,21.1361,0,U,37841,999,76069,.53719828E-4,.364E-5,0
